TEVEL2-1                
1 63217U 25052H   26068.64782323  .00020683  00000+0  70600-3 0  9994
2 63217  97.3991 324.7682 0004767 104.8919 255.2849 15.30341923 54855
STARLINK-33725          
1 63717U 25087W   26068.70699303  .00046247  00000+0  15649-2 0  9994
2 63717  53.1574 219.3748 0001106  58.2900 301.8208 15.30177870 49203
